LEMUR-1                 
1 40044U 14033AL  26117.15573056  .00002404  00000+0  28258-3 0  9999
2 40044  97.7810 268.1217 0047281 244.8263 114.8045 14.85018730637897
LEMUR-2-GREENBERG       
1 42837U 17042N   26117.15578102  .00020966  00000+0  72889-3 0  9993
2 42837  97.3810 298.0844 0009440 177.7975 182.3309 15.29711093480588
LEMUR-2-ANDIS           
1 42838U 17042P   26117.22895709  .00028261  00000+0  89240-3 0  9992
2 42838  97.3676 298.1810 0009421 180.4528 179.6707 15.32755658480644
LEMUR-2-MONSON          
1 42839U 17042Q   26117.25343454  .00018257  00000+0  69922-3 0  9990
2 42839  97.4067 298.2254 0007383 164.6705 195.4759 15.26569498480392
LEMUR-2-FURIAUS         
1 42840U 17042R   26117.24263585  .00028280  00000+0  10191-2 0  9997
2 42840  97.3765 296.2441 0006899 235.6899 124.3688 15.28494680480426
LEMUR-2-PETERG          
1 42841U 17042S   26117.24591766  .00022759  00000+0  74119-3 0  9999
2 42841  97.3994 302.2797 0004859 150.0243 210.1278 15.31841975480639
LEMUR-2-DEMBITZ         
1 42842U 17042T   26117.07007579  .00017355  00000+0  62356-3 0  9991
2 42842  97.3824 299.0494 0006959 187.9823 172.1308 15.28692775480533
LEMUR-2-ZACHARY         
1 42845U 17042W   26117.25438842  .00050911  00000+0  10381-2 0  9990
2 42845  97.3640 307.9670 0004142 184.7100 175.4111 15.46051523481328
LEMUR-2-KADI            
1 43184U 18014E   26117.23698909  .00264340  00000+0  15872-2 0  9990
2 43184  97.4559  45.1387 0006698  97.6847 262.5179 15.76997806453001
LEMUR-2-AMANDA-SVANTE   
1 48269U 21034B   26117.17457003  .00037637  00000+0  12419-2 0  9997
2 48269  97.5781 194.2359 0003988  95.4285 264.7411 15.31317408273248
LEMUR-2-SPECIAL-K       
1 48273U 21034F   26117.22229953  .00112571  00000+0  17769-2 0  9993
2 48273  97.5661 200.8990 0002279 161.9636 198.1698 15.53112134273752
LEMUR-2-EMBRIONOVIS     
1 56970U 23084AQ  26116.96092059  .00016111  00000+0  45790-3 0  9997
2 56970  97.6215 259.2700 0010108 133.6699 226.5384 15.36203519159810
LEMUR-2-MANO            
1 57390U 23100E   26117.08929860  .00361188  00000+0  18492-2 0  9991
2 57390  99.4434 156.4398 0013601 171.5796 188.5696 15.80206240154070
LEMUR-2-DEVERILL-M-T    
1 57391U 23100F   26117.30906194  .00030445  00000+0  83305-3 0  9997
2 57391  99.4523 141.4895 0006866 198.1198 161.9796 15.37298365153427
LEMUR-2-BASS            
1 58259U 23174D   26117.21212075  .00020245  00000+0  48478-3 0  9999
2 58259  97.3846 201.2811 0006449   5.1410 354.9902 15.41451084137508
LEMUR-2-JK0903EM1407    
1 58336U 23174CJ  26117.21888972  .00031269  00000+0  57492-3 0  9994
2 58336  97.3895 206.3739 0003696 289.9635  70.1217 15.49154165137835
