[{"OBJECT_NAME":"LEMUR-1","OBJECT_ID":"2014-033AL","EPOCH":"2026-04-27T03:44:15.120384","MEAN_MOTION":14.8501873,"ECCENTRICITY":0.00472813,"INCLINATION":97.781,"RA_OF_ASC_NODE":268.1217,"ARG_OF_PERICENTER":244.8263,"MEAN_ANOMALY":114.8045,"EPHEMERIS_TYPE":0,"CLASSIFICATION_TYPE":"U","NORAD_CAT_ID":40044,"ELEMENT_SET_NO":999,"REV_AT_EPOCH":63789,"BSTAR":0.0002825792,"MEAN_MOTION_DOT":2.404e-5,"MEAN_MOTION_DDOT":0},{"OBJECT_NAME":"LEMUR-2-GREENBERG","OBJECT_ID":"2017-042N","EPOCH":"2026-04-27T03:44:19.480128","MEAN_MOTION":15.29711093,"ECCENTRICITY":0.00094401,"INCLINATION":97.381,"RA_OF_ASC_NODE":298.0844,"ARG_OF_PERICENTER":177.7975,"MEAN_ANOMALY":182.3309,"EPHEMERIS_TYPE":0,"CLASSIFICATION_TYPE":"U","NORAD_CAT_ID":42837,"ELEMENT_SET_NO":999,"REV_AT_EPOCH":48058,"BSTAR":0.00072889426,"MEAN_MOTION_DOT":0.00020966,"MEAN_MOTION_DDOT":0},{"OBJECT_NAME":"LEMUR-2-ANDIS","OBJECT_ID":"2017-042P","EPOCH":"2026-04-27T05:29:41.892576","MEAN_MOTION":15.32755658,"ECCENTRICITY":0.00094218,"INCLINATION":97.3676,"RA_OF_ASC_NODE":298.181,"ARG_OF_PERICENTER":180.4528,"MEAN_ANOMALY":179.6707,"EPHEMERIS_TYPE":0,"CLASSIFICATION_TYPE":"U","NORAD_CAT_ID":42838,"ELEMENT_SET_NO":999,"REV_AT_EPOCH":48064,"BSTAR":0.00089239975,"MEAN_MOTION_DOT":0.00028261,"MEAN_MOTION_DDOT":0},{"OBJECT_NAME":"LEMUR-2-MONSON","OBJECT_ID":"2017-042Q","EPOCH":"2026-04-27T06:04:56.744256","MEAN_MOTION":15.26569498,"ECCENTRICITY":0.00073832,"INCLINATION":97.4067,"RA_OF_ASC_NODE":298.2254,"ARG_OF_PERICENTER":164.6705,"MEAN_ANOMALY":195.4759,"EPHEMERIS_TYPE":0,"CLASSIFICATION_TYPE":"U","NORAD_CAT_ID":42839,"ELEMENT_SET_NO":999,"REV_AT_EPOCH":48039,"BSTAR":0.00069921972,"MEAN_MOTION_DOT":0.00018257,"MEAN_MOTION_DDOT":0},{"OBJECT_NAME":"LEMUR-2-FURIAUS","OBJECT_ID":"2017-042R","EPOCH":"2026-04-27T05:49:23.737440","MEAN_MOTION":15.2849468,"ECCENTRICITY":0.00068991,"INCLINATION":97.3765,"RA_OF_ASC_NODE":296.2441,"ARG_OF_PERICENTER":235.6899,"MEAN_ANOMALY":124.3688,"EPHEMERIS_TYPE":0,"CLASSIFICATION_TYPE":"U","NORAD_CAT_ID":42840,"ELEMENT_SET_NO":999,"REV_AT_EPOCH":48042,"BSTAR":0.0010190742,"MEAN_MOTION_DOT":0.0002828,"MEAN_MOTION_DDOT":0},{"OBJECT_NAME":"LEMUR-2-PETERG","OBJECT_ID":"2017-042S","EPOCH":"2026-04-27T05:54:07.285824","MEAN_MOTION":15.31841975,"ECCENTRICITY":0.00048593,"INCLINATION":97.3994,"RA_OF_ASC_NODE":302.2797,"ARG_OF_PERICENTER":150.0243,"MEAN_ANOMALY":210.1278,"EPHEMERIS_TYPE":0,"CLASSIFICATION_TYPE":"U","NORAD_CAT_ID":42841,"ELEMENT_SET_NO":999,"REV_AT_EPOCH":48063,"BSTAR":0.00074119097,"MEAN_MOTION_DOT":0.00022759,"MEAN_MOTION_DDOT":0},{"OBJECT_NAME":"LEMUR-2-DEMBITZ","OBJECT_ID":"2017-042T","EPOCH":"2026-04-27T01:40:54.548256","MEAN_MOTION":15.28692775,"ECCENTRICITY":0.00069596,"INCLINATION":97.3824,"RA_OF_ASC_NODE":299.0494,"ARG_OF_PERICENTER":187.9823,"MEAN_ANOMALY":172.1308,"EPHEMERIS_TYPE":0,"CLASSIFICATION_TYPE":"U","NORAD_CAT_ID":42842,"ELEMENT_SET_NO":999,"REV_AT_EPOCH":48053,"BSTAR":0.00062356072,"MEAN_MOTION_DOT":0.00017355,"MEAN_MOTION_DDOT":0},{"OBJECT_NAME":"LEMUR-2-ZACHARY","OBJECT_ID":"2017-042W","EPOCH":"2026-04-27T06:06:19.159488","MEAN_MOTION":15.46051523,"ECCENTRICITY":0.00041425,"INCLINATION":97.364,"RA_OF_ASC_NODE":307.967,"ARG_OF_PERICENTER":184.71,"MEAN_ANOMALY":175.4111,"EPHEMERIS_TYPE":0,"CLASSIFICATION_TYPE":"U","NORAD_CAT_ID":42845,"ELEMENT_SET_NO":999,"REV_AT_EPOCH":48132,"BSTAR":0.0010380916,"MEAN_MOTION_DOT":0.00050911,"MEAN_MOTION_DDOT":0},{"OBJECT_NAME":"LEMUR-2-KADI","OBJECT_ID":"2018-014E","EPOCH":"2026-04-27T05:41:15.857376","MEAN_MOTION":15.76997806,"ECCENTRICITY":0.0006698,"INCLINATION":97.4559,"RA_OF_ASC_NODE":45.1387,"ARG_OF_PERICENTER":97.6847,"MEAN_ANOMALY":262.5179,"EPHEMERIS_TYPE":0,"CLASSIFICATION_TYPE":"U","NORAD_CAT_ID":43184,"ELEMENT_SET_NO":999,"REV_AT_EPOCH":45300,"BSTAR":0.0015871825,"MEAN_MOTION_DOT":0.0026434,"MEAN_MOTION_DDOT":0},{"OBJECT_NAME":"LEMUR-2-AMANDA-SVANTE","OBJECT_ID":"2021-034B","EPOCH":"2026-04-27T04:11:22.850592","MEAN_MOTION":15.31317408,"ECCENTRICITY":0.00039886,"INCLINATION":97.5781,"RA_OF_ASC_NODE":194.2359,"ARG_OF_PERICENTER":95.4285,"MEAN_ANOMALY":264.7411,"EPHEMERIS_TYPE":0,"CLASSIFICATION_TYPE":"U","NORAD_CAT_ID":48269,"ELEMENT_SET_NO":999,"REV_AT_EPOCH":27324,"BSTAR":0.0012418943,"MEAN_MOTION_DOT":0.00037637,"MEAN_MOTION_DDOT":0},{"OBJECT_NAME":"LEMUR-2-SPECIAL-K","OBJECT_ID":"2021-034F","EPOCH":"2026-04-27T05:20:06.679392","MEAN_MOTION":15.53112134,"ECCENTRICITY":0.00022796,"INCLINATION":97.5661,"RA_OF_ASC_NODE":200.899,"ARG_OF_PERICENTER":161.9636,"MEAN_ANOMALY":198.1698,"EPHEMERIS_TYPE":0,"CLASSIFICATION_TYPE":"U","NORAD_CAT_ID":48273,"ELEMENT_SET_NO":999,"REV_AT_EPOCH":27375,"BSTAR":0.0017769374,"MEAN_MOTION_DOT":0.00112571,"MEAN_MOTION_DDOT":0},{"OBJECT_NAME":"LEMUR-2-EMBRIONOVIS","OBJECT_ID":"2023-084AQ","EPOCH":"2026-04-26T23:03:43.538976","MEAN_MOTION":15.36203519,"ECCENTRICITY":0.00101085,"INCLINATION":97.6215,"RA_OF_ASC_NODE":259.27,"ARG_OF_PERICENTER":133.6699,"MEAN_ANOMALY":226.5384,"EPHEMERIS_TYPE":0,"CLASSIFICATION_TYPE":"U","NORAD_CAT_ID":56970,"ELEMENT_SET_NO":999,"REV_AT_EPOCH":15981,"BSTAR":0.00045790323,"MEAN_MOTION_DOT":0.00016111,"MEAN_MOTION_DDOT":0},{"OBJECT_NAME":"LEMUR-2-MANO","OBJECT_ID":"2023-100E","EPOCH":"2026-04-27T02:08:35.399040","MEAN_MOTION":15.8020624,"ECCENTRICITY":0.00136017,"INCLINATION":99.4434,"RA_OF_ASC_NODE":156.4398,"ARG_OF_PERICENTER":171.5796,"MEAN_ANOMALY":188.5696,"EPHEMERIS_TYPE":0,"CLASSIFICATION_TYPE":"U","NORAD_CAT_ID":57390,"ELEMENT_SET_NO":999,"REV_AT_EPOCH":15407,"BSTAR":0.0018492247,"MEAN_MOTION_DOT":0.00361188,"MEAN_MOTION_DDOT":0},{"OBJECT_NAME":"LEMUR-2-DEVERILL-M-T","OBJECT_ID":"2023-100F","EPOCH":"2026-04-27T07:25:02.951616","MEAN_MOTION":15.37298365,"ECCENTRICITY":0.00068667,"INCLINATION":99.4523,"RA_OF_ASC_NODE":141.4895,"ARG_OF_PERICENTER":198.1198,"MEAN_ANOMALY":161.9796,"EPHEMERIS_TYPE":0,"CLASSIFICATION_TYPE":"U","NORAD_CAT_ID":57391,"ELEMENT_SET_NO":999,"REV_AT_EPOCH":15342,"BSTAR":0.00083304573,"MEAN_MOTION_DOT":0.00030445,"MEAN_MOTION_DDOT":0},{"OBJECT_NAME":"LEMUR-2-BASS","OBJECT_ID":"2023-174D","EPOCH":"2026-04-27T05:05:27.232800","MEAN_MOTION":15.41451084,"ECCENTRICITY":0.00064497,"INCLINATION":97.3846,"RA_OF_ASC_NODE":201.2811,"ARG_OF_PERICENTER":5.141,"MEAN_ANOMALY":354.9902,"EPHEMERIS_TYPE":0,"CLASSIFICATION_TYPE":"U","NORAD_CAT_ID":58259,"ELEMENT_SET_NO":999,"REV_AT_EPOCH":13750,"BSTAR":0.00048477655,"MEAN_MOTION_DOT":0.00020245,"MEAN_MOTION_DDOT":0},{"OBJECT_NAME":"LEMUR-2-JK0903EM1407","OBJECT_ID":"2023-174CJ","EPOCH":"2026-04-27T05:15:12.071808","MEAN_MOTION":15.49154165,"ECCENTRICITY":0.0003696,"INCLINATION":97.3895,"RA_OF_ASC_NODE":206.3739,"ARG_OF_PERICENTER":289.9635,"MEAN_ANOMALY":70.1217,"EPHEMERIS_TYPE":0,"CLASSIFICATION_TYPE":"U","NORAD_CAT_ID":58336,"ELEMENT_SET_NO":999,"REV_AT_EPOCH":13783,"BSTAR":0.00057492049,"MEAN_MOTION_DOT":0.00031269,"MEAN_MOTION_DDOT":0}]
